NORAD_CAT_ID,OBJECT_NAME,OBJECT_TYPE,EPOCH,MEAN_MOTION,ECCENTRICITY,INCLINATION,RA_OF_ASC_NODE,ARG_OF_PERICENTER,MEAN_ANOMALY,BSTAR,MEAN_MOTION_DOT,MEAN_MOTION_DDOT,TLE_LINE0,TLE_LINE1,TLE_LINE2,SEMIMAJOR_AXIS,PERIOD,APOGEE,PERIGEE,DECAYED
53858.0,STARLINK-4798,PAYLOAD,2023-04-30 15:27:01,15.08840519,0.0001483,53.2148,291.2222,84.5823,275.5338,-1.7536e-05,-5.67e-06,0.0,0 STARLINK-4798,1 53858U 22114AS  23120.64376267 -.00000567  00000-0 -17536-4 0  9994,2 53858  53.2148 291.2222 0001483  84.5823 275.5338 15.08840519 34955,6917.879,95.438,540.77,538.718,0.0
53858.0,STARLINK-4798,PAYLOAD,2023-04-30 20:13:10,15.08850318,0.0001416,53.2152,290.3296,74.9501,285.1647,-3.8857e-05,-9.07e-06,0.0,0 STARLINK-4798,1 53858U 22114AS  23120.84247855 -.00000907  00000-0 -38857-4 0  9993,2 53858  53.2152 290.3296 0001416  74.9501 285.1647 15.08850318 34984,6917.849,95.437,540.693,538.734,0.0
53858.0,STARLINK-4798,PAYLOAD,2023-05-01 10:31:39,15.08836272,0.0001417,53.2146,287.6538,78.2199,281.8952,6.4938e-05,7.46e-06,0.0,0 STARLINK-4798,1 53858U 22114AS  23121.43864689  .00000746  00000-0  64938-4 0  9997,2 53858  53.2146 287.6538 0001417  78.2199 281.8952 15.08836272 35612,6917.892,95.438,540.737,538.777,0.0
53858.0,STARLINK-4798,PAYLOAD,2023-05-01 15:17:48,15.0883491,0.0001517,53.2151,286.7619,79.053,281.0632,2.959e-05,1.83e-06,0.0,0 STARLINK-4798,1 53858U 22114AS  23121.63736829  .00000183  00000-0  29590-4 0  9993,2 53858  53.2151 286.7619 0001517  79.0530 281.0632 15.08834910 35105,6917.896,95.438,540.81,538.712,0.0
53858.0,STARLINK-4798,PAYLOAD,2023-05-01 16:53:11,15.08834911,0.0001421,53.2155,286.4648,77.5333,282.5818,-4.0355e-06,-3.52e-06,0.0,0 STARLINK-4798,1 53858U 22114AS  23121.70360834 -.00000352  00000-0 -40355-5 0  9993,2 53858  53.2155 286.4648 0001421  77.5333 282.5818 15.08834911 35659,6917.896,95.438,540.744,538.778,0.0
53858.0,STARLINK-4798,PAYLOAD,2023-05-01 23:14:43,15.08844811,0.0001345,53.2156,285.2738,77.6586,282.4556,0.00014053,1.95e-05,0.0,0 STARLINK-4798,1 53858U 22114AS  23121.96856322  .00001950  00000-0  14053-3 0  9990,2 53858  53.2156 285.2738 0001345  77.6586 282.4556 15.08844811 35156,6917.866,95.437,540.661,538.8,0.0
53858.0,STARLINK-4798,PAYLOAD,2023-05-02 10:22:26,15.08840849,0.0001423,53.2157,283.1918,98.1251,261.9902,0.00014866,2.079e-05,0.0,0 STARLINK-4798,1 53858U 22114AS  23122.43224589  .00002079  00000-0  14866-3 0  9992,2 53858  53.2157 283.1918 0001423  98.1251 261.9902 15.08840849 35769,6917.878,95.438,540.727,538.758,0.0
53858.0,STARLINK-4798,PAYLOAD,2023-05-02 19:54:44,15.0885086,0.0001328,53.2147,281.4085,78.2339,281.8802,0.00027778,4.137e-05,0.0,0 STARLINK-4798,1 53858U 22114AS  23122.82968172  .00004137  00000-0  27778-3 0  9991,2 53858  53.2147 281.4085 0001328  78.2339 281.8802 15.08850860 35825,6917.847,95.437,540.631,538.794,0.0
53858.0,STARLINK-4798,PAYLOAD,2023-05-03 10:13:13,15.0883719,0.0001259,53.2146,278.7288,115.8096,244.3026,4.114e-05,3.67e-06,0.0,0 STARLINK-4798,1 53858U 22114AS  23123.42584585  .00000367  00000-0  41140-4 0  9991,2 53858  53.2146 278.7288 0001259 115.8096 244.3026 15.08837190 35372,6917.889,95.438,540.625,538.883,0.0
53858.0,STARLINK-4798,PAYLOAD,2023-05-03 16:34:45,15.08841242,0.0001212,53.2146,277.5402,108.2882,251.8242,0.00012153,1.647e-05,0.0,0 STARLINK-4798,1 53858U 22114AS  23123.69080475  .00001647  00000-0  12153-3 0  9992,2 53858  53.2146 277.5402 0001212 108.2882 251.8242 15.08841242 35955,6917.877,95.437,540.58,538.903,0.0
53858.0,STARLINK-4798,PAYLOAD,2023-05-04 13:14:46,15.08842608,0.0001171,53.2155,273.6762,89.4765,270.6361,3.9957e-05,3.48e-06,0.0,0 STARLINK-4798,1 53858U 22114AS  23124.55192693  .00000348  00000-0  39957-4 0  9993,2 53858  53.2155 273.6762 0001171  89.4765 270.6361 15.08842608 35548,6917.872,95.437,540.548,538.927,0.0
53858.0,STARLINK-4798,PAYLOAD,2023-05-04 19:36:18,15.08849619,0.0001185,53.2158,272.4871,89.9903,270.1225,0.00016704,2.372e-05,0.0,0 STARLINK-4798,1 53858U 22114AS  23124.81688313  .00002372  00000-0  16704-3 0  9994,2 53858  53.2158 272.4871 0001185  89.9903 270.1225 15.08849619 36121,6917.851,95.437,540.536,538.896,0.0
53858.0,STARLINK-4798,PAYLOAD,2023-05-05 16:16:19,15.08849209,0.0001093,53.2153,268.6215,88.3721,271.7396,0.00028595,4.267e-05,0.0,0 STARLINK-4798,1 53858U 22114AS  23125.67800443  .00004267  00000-0  28595-3 0  9995,2 53858  53.2153 268.6215 0001093  88.3721 271.7396 15.08849209 35719,6917.852,95.437,540.473,538.961,0.0
53858.0,STARLINK-4798,PAYLOAD,2023-05-05 19:27:05,15.088548,0.0001069,53.2154,268.0265,86.5942,273.5172,0.0004035,6.142e-05,0.0,0 STARLINK-4798,1 53858U 22114AS  23125.81048252  .00006142  00000-0  40350-3 0  9990,2 53858  53.2154 268.0265 0001069  86.5942 273.5172 15.08854800 36274,6917.835,95.437,540.44,538.961,0.0
53858.0,STARLINK-4798,PAYLOAD,2023-05-06 16:07:06,15.08856355,9.67e-05,53.2151,264.1605,86.419,273.6913,0.00040348,6.142e-05,0.0,0 STARLINK-4798,1 53858U 22114AS  23126.67160177  .00006142  00000-0  40348-3 0  9993,2 53858  53.2151 264.1605 0000967  86.4190 273.6913 15.08856355 36402,6917.83,95.437,540.364,539.026,0.0
53858.0,STARLINK-4798,PAYLOAD,2023-05-07 01:39:25,15.08852995,7.65e-05,53.2147,262.3757,76.7016,283.4062,0.00033642,5.072e-05,0.0,0 STARLINK-4798,1 53858U 22114AS  23127.06904160  .00005072  00000-0  33642-3 0  9995,2 53858  53.2147 262.3757 0000765  76.7016 283.4062 15.08852995 35926,6917.841,95.437,540.235,539.176,0.0
53858.0,STARLINK-4798,PAYLOAD,2023-05-07 12:47:07,15.08828892,8.88e-05,53.2132,260.2998,90.1787,269.9307,-0.00018966,-3.304e-05,0.0,0 STARLINK-4798,1 53858U 22114AS  23127.53273115 -.00003304  00000-0 -18966-3 0  9996,2 53858  53.2132 260.2998 0000888  90.1787 269.9307 15.08828892 35992,6917.914,95.438,540.394,539.165,0.0
53858.0,STARLINK-4798,PAYLOAD,2023-05-07 15:57:54,15.08828398,8.98e-05,53.2134,259.7044,93.0893,267.0201,-0.00013999,-2.514e-05,0.0,0 STARLINK-4798,1 53858U 22114AS  23127.66521315 -.00002514  00000-0 -13999-3 0  9991,2 53858  53.2134 259.7044 0000898  93.0893 267.0201 15.08828398 36556,6917.916,95.438,540.402,539.16,0.0
53858.0,STARLINK-4798,PAYLOAD,2023-05-08 01:30:13,15.08838678,9.33e-05,53.2146,257.9177,79.1208,280.9889,0.00013114,1.8e-05,0.0,0 STARLINK-4798,1 53858U 22114AS  23128.06265151  .00001800  00000-0  13114-3 0  9993,2 53858  53.2146 257.9177 0000933  79.1208 280.9889 15.08838678 36076,6917.884,95.438,540.395,539.104,0.0
53858.0,STARLINK-4798,PAYLOAD,2023-05-08 17:24:04,15.08866707,9.8e-05,53.2148,254.9431,57.4264,302.6822,0.0015368,0.00024273,0.0,0 STARLINK-4798,1 53858U 22114AS  23128.72504924  .00024273  00000-0  15368-2 0  9991,2 53858  53.2148 254.9431 0000980  57.4264 302.6822 15.08866707 36175,6917.799,95.436,540.342,538.986,0.0
53858.0,STARLINK-4798,PAYLOAD,2023-05-09 14:04:05,15.08849134,8.57e-05,53.2145,251.078,55.382,304.7253,0.0012509,0.00019681,0.0,0 STARLINK-4798,1 53858U 22114AS  23129.58617188  .00019681  00000-0  12509-2 0  9994,2 53858  53.2145 251.0780 0000857  55.3820 304.7253 15.08849134 36845,6917.852,95.437,540.31,539.125,0.0
53858.0,STARLINK-4798,PAYLOAD,2023-05-10 12:19:29,15.0884162,5.35e-05,53.2145,246.9145,68.7489,291.356,0.001239,0.00019487,0.0,0 STARLINK-4798,1 53858U 22114AS  23130.51353305  .00019487  00000-0  12390-2 0  9999,2 53858  53.2145 246.9145 0000535  68.7489 291.3560 15.08841620 36984,6917.875,95.437,540.111,539.37,0.0
53858.0,STARLINK-4798,PAYLOAD,2023-05-10 13:54:52,15.08850329,7.49e-05,53.2144,246.6173,78.251,281.8566,0.0019281,0.0003054,0.0,0 STARLINK-4798,1 53858U 22114AS  23130.57977380  .00030540  00000-0  19281-2 0  9999,2 53858  53.2144 246.6173 0000749  78.2510 281.8566 15.08850329 36457,6917.849,95.437,540.232,539.196,0.0
53858.0,STARLINK-4798,PAYLOAD,2023-05-11 01:02:34,15.08858851,0.0001243,53.2134,244.5395,54.2497,305.861,0.0018687,0.00029593,0.0,0 STARLINK-4798,1 53858U 22114AS  23131.04345435  .00029593  00000-0  18687-2 0  9997,2 53858  53.2134 244.5395 0001243  54.2497 305.8610 15.08858851 37060,6917.823,95.436,540.548,538.828,0.0
53858.0,STARLINK-4798,PAYLOAD,2023-05-11 13:45:39,15.08851894,0.0001252,53.2156,242.1517,111.6109,248.5016,0.00085034,0.00013275,0.0,0 STARLINK-4798,1 53858U 22114AS  23131.57337147  .00013275  00000-0  85034-3 0  9997,2 53858  53.2156 242.1517 0001252 111.6109 248.5016 15.08851894 36604,6917.844,95.437,540.575,538.843,0.0
53858.0,STARLINK-4798,PAYLOAD,2023-05-12 00:53:21,15.08848549,0.0001117,53.2132,240.0755,73.9361,286.1754,0.00055303,8.527e-05,0.0,0 STARLINK-4798,1 53858U 22114AS  23132.03705239  .00008527  00000-0  55303-3 0  9990,2 53858  53.2132 240.0755 0001117  73.9361 286.1754 15.08848549 36676,6917.854,95.437,540.492,538.947,0.0
53858.0,STARLINK-4798,PAYLOAD,2023-05-13 11:51:50,15.08849743,0.0001403,53.2157,233.5283,122.7522,237.3606,0.000307,4.603e-05,0.0,0 STARLINK-4798,1 53858U 22114AS  23133.49433015  .00004603  00000-0  30700-3 0  9996,2 53858  53.2157 233.5283 0001403 122.7522 237.3606 15.08849743 36891,6917.851,95.437,540.686,538.745,0.0
53858.0,STARLINK-4798,PAYLOAD,2023-05-14 11:42:37,15.08843009,0.0001139,53.2158,229.0696,104.4354,255.6765,0.00014915,2.087e-05,0.0,0 STARLINK-4798,1 53858U 22114AS  23134.48793351  .00002087  00000-0  14915-3 0  9992,2 53858  53.2158 229.0696 0001139 104.4354 255.6765 15.08843009 37042,6917.871,95.437,540.524,538.948,0.0
53858.0,STARLINK-4798,PAYLOAD,2023-05-15 13:08:47,15.08837215,8.81e-05,53.2145,224.3158,104.1099,255.9991,-1.7296e-05,-5.63e-06,0.0,0 STARLINK-4798,1 53858U 22114AS  23135.54777494 -.00000563  00000-0 -17296-4 0  9995,2 53858  53.2145 224.3158 0000881 104.1099 255.9991 15.08837215 37209,6917.889,95.438,540.363,539.144,0.0
53858.0,STARLINK-4798,PAYLOAD,2023-05-16 12:59:36,15.08821107,0.0001026,53.2142,219.8558,112.6469,247.4631,0.00057546,8.878e-05,0.0,0 STARLINK-4798,1 53858U 22114AS  23136.54138967  .00008878  00000-0  57546-3 0  9998,2 53858  53.2142 219.8558 0001026 112.6469 247.4631 15.08821107 37352,6917.938,95.439,540.513,539.093,0.0
